CTC1_L_00170001-01
1 25470U 23473OS  26037.47803241  .00000000  00000+0  00000-0 0  9993
2 25470  45.0000   0.0000 0000000   0.0000   0.0000 13.89609337    19
CTC1_L_00170001-02
1 25471U 23246DS  26037.47803241  .00000000  00000+0  00000-0 0  9992
2 25471  45.0000   0.0000 0000000   0.0000  90.0000 13.89609337    19
CTC1_L_00170001-03
1 25472U 26751PM  26037.47803241  .00000000  00000+0  00000-0 0  9997
2 25472  45.0000   0.0000 0000000   0.0000 180.0000 13.89609337    10
CTC1_L_00170001-04
1 25473U 23292DL  26037.47803241  .00000000  00000+0  00000-0 0  9995
2 25473  45.0000   0.0000 0000000   0.0000 270.0000 13.89609337    11
CTC1_L_00170002-01
1 25474U 23879UM  26037.47803241  .00000000  00000+0  00000-0 0  9997
2 25474  45.0000  12.0000 0000000   0.0000  12.0000 13.89609337    19
CTC1_L_00170002-02
1 25475U 22545DX  26037.47803241  .00000000  00000+0  00000-0 0  9997
2 25475  45.0000  12.0000 0000000   0.0000 102.0000 13.89609337    10
CTC1_L_00170002-03
1 25476U 23956EB  26037.47803241  .00000000  00000+0  00000-0 0  9995
2 25476  45.0000  12.0000 0000000   0.0000 192.0000 13.89609337    10
CTC1_L_00170002-04
1 25477U 24163GN  26037.47803241  .00000000  00000+0  00000-0 0  9997
2 25477  45.0000  12.0000 0000000   0.0000 282.0000 13.89609337    11
CTC1_L_00170003-01
1 25478U 24460PW  26037.47803241  .00000000  00000+0  00000-0 0  9998
2 25478  45.0000  24.0000 0000000   0.0000  24.0000 13.89609337    19
CTC1_L_00170003-02
1 25479U 25912ZG  26037.47803241  .00000000  00000+0  00000-0 0  9992
2 25479  45.0000  24.0000 0000000   0.0000 114.0000 13.89609337    10
CTC1_L_00170003-03
1 25480U 22731B   26037.47803241  .00000000  00000+0  00000-0 0  9990
2 25480  45.0000  24.0000 0000000   0.0000 204.0000 13.89609337    12
CTC1_L_00170003-04
1 25481U 24442AJ  26037.47803241  .00000000  00000+0  00000-0 0  9992
2 25481  45.0000  24.0000 0000000   0.0000 294.0000 13.89609337    12
CTC1_L_00170004-01
1 25482U 24985SK  26037.47803241  .00000000  00000+0  00000-0 0  9995
2 25482  45.0000  36.0000 0000000   0.0000  36.0000 13.89609337    10
CTC1_L_00170004-02
1 25483U 23794JQ  26037.47803241  .00000000  00000+0  00000-0 0  9993
2 25483  45.0000  36.0000 0000000   0.0000 126.0000 13.89609337    11
CTC1_L_00170004-03
1 25484U 23305PQ  26037.47803241  .00000000  00000+0  00000-0 0  9992
2 25484  45.0000  36.0000 0000000   0.0000 216.0000 13.89609337    12
CTC1_L_00170004-04
1 25485U 24633PP  26037.47803241  .00000000  00000+0  00000-0 0  9998
2 25485  45.0000  36.0000 0000000   0.0000 306.0000 13.89609337    13
CTC1_L_00170005-01
1 25486U 26991SX  26037.47803241  .00000000  00000+0  00000-0 0  9998
2 25486  45.0000  48.0000 0000000   0.0000  48.0000 13.89609337    10
CTC1_L_00170005-02
1 25487U 24873OY  26037.47803241  .00000000  00000+0  00000-0 0  9996
2 25487  45.0000  48.0000 0000000   0.0000 138.0000 13.89609337    11
CTC1_L_00170005-03
1 25488U 26147VY  26037.47803241  .00000000  00000+0  00000-0 0  9993
2 25488  45.0000  48.0000 0000000   0.0000 228.0000 13.89609337    12
CTC1_L_00170005-04
1 25489U 24882HG  26037.47803241  .00000000  00000+0  00000-0 0  9998
2 25489  45.0000  48.0000 0000000   0.0000 318.0000 13.89609337    13
CTC1_L_00170006-01
1 25490U 25403IC  26037.47803241  .00000000  00000+0  00000-0 0  9990
2 25490  45.0000  60.0000 0000000   0.0000  60.0000 13.89609337    13
CTC1_L_00170006-02
1 25491U 23149PC  26037.47803241  .00000000  00000+0  00000-0 0  9996
2 25491  45.0000  60.0000 0000000   0.0000 150.0000 13.89609337    14
CTC1_L_00170006-03
1 25492U 23901DD  26037.47803241  .00000000  00000+0  00000-0 0  9993
2 25492  45.0000  60.0000 0000000   0.0000 240.0000 13.89609337    15
CTC1_L_00170006-04
1 25493U 23478OE  26037.47803241  .00000000  00000+0  00000-0 0  9993
2 25493  45.0000  60.0000 0000000   0.0000 330.0000 13.89609337    16
CTC1_L_00170007-01
1 25494U 24798BC  26037.47803241  .00000000  00000+0  00000-0 0  9990
2 25494  45.0000  72.0000 0000000   0.0000  72.0000 13.89609337    13
CTC1_L_00170007-02
1 25495U 25138BJ  26037.47803241  .00000000  00000+0  00000-0 0  9990
2 25495  45.0000  72.0000 0000000   0.0000 162.0000 13.89609337    14
CTC1_L_00170007-03
1 25496U 25853XO  26037.47803241  .00000000  00000+0  00000-0 0  9995
2 25496  45.0000  72.0000 0000000   0.0000 252.0000 13.89609337    15
CTC1_L_00170007-04
1 25497U 23650GQ  26037.47803241  .00000000  00000+0  00000-0 0  9999
2 25497  45.0000  72.0000 0000000   0.0000 342.0000 13.89609337    16
CTC1_L_00170008-01
1 25498U 22776UY  26037.47803241  .00000000  00000+0  00000-0 0  9998
2 25498  45.0000  84.0000 0000000   0.0000  84.0000 13.89609337    13
CTC1_L_00170008-02
1 25499U 22833EO  26037.47803241  .00000000  00000+0  00000-0 0  9993
2 25499  45.0000  84.0000 0000000   0.0000 174.0000 13.89609337    14
CTC1_L_00170008-03
1 25500U 22225RI  26037.47803241  .00000000  00000+0  00000-0 0  9991
2 25500  45.0000  84.0000 0000000   0.0000 264.0000 13.89609337    17
CTC1_L_00170008-04
1 25501U 25466OI  26037.47803241  .00000000  00000+0  00000-0 0  9992
2 25501  45.0000  84.0000 0000000   0.0000 354.0000 13.89609337    18
CTC1_L_00170009-01
1 25502U 24772TV  26037.47803241  .00000000  00000+0  00000-0 0  9992
2 25502  45.0000  96.0000 0000000   0.0000  96.0000 13.89609337    15
CTC1_L_00170009-02
1 25503U 22974QI  26037.47803241  .00000000  00000+0  00000-0 0  9995
2 25503  45.0000  96.0000 0000000   0.0000 186.0000 13.89609337    16
CTC1_L_00170009-03
1 25504U 23132XR  26037.47803241  .00000000  00000+0  00000-0 0  9993
2 25504  45.0000  96.0000 0000000   0.0000 276.0000 13.89609337    17
CTC1_L_00170009-04
1 25505U 23838KW  26037.47803241  .00000000  00000+0  00000-0 0  9997
2 25505  45.0000  96.0000 0000000   0.0000   6.0000 13.89609337    19
CTC1_L_00170010-01
1 25506U 25055XC  26037.47803241  .00000000  00000+0  00000-0 0  9991
2 25506  45.0000 108.0000 0000000   0.0000 108.0000 13.89609337    17
CTC1_L_00170010-02
1 25507U 26355VU  26037.47803241  .00000000  00000+0  00000-0 0  9996
2 25507  45.0000 108.0000 0000000   0.0000 198.0000 13.89609337    17
CTC1_L_00170010-03
1 25508U 25059OG  26037.47803241  .00000000  00000+0  00000-0 0  9997
2 25508  45.0000 108.0000 0000000   0.0000 288.0000 13.89609337    18
CTC1_L_00170010-04
1 25509U 25714VP  26037.47803241  .00000000  00000+0  00000-0 0  9996
2 25509  45.0000 108.0000 0000000   0.0000  18.0000 13.89609337    10
CTC1_L_00170011-01
1 25510U 23005EM  26037.47803241  .00000000  00000+0  00000-0 0  9999
2 25510  45.0000 120.0000 0000000   0.0000 120.0000 13.89609337    10
CTC1_L_00170011-02
1 25511U 26449YY  26037.47803241  .00000000  00000+0  00000-0 0  9995
2 25511  45.0000 120.0000 0000000   0.0000 210.0000 13.89609337    11
CTC1_L_00170011-03
1 25512U 24768ET  26037.47803241  .00000000  00000+0  00000-0 0  9998
2 25512  45.0000 120.0000 0000000   0.0000 300.0000 13.89609337    12
CTC1_L_00170011-04
1 25513U 23627MF  26037.47803241  .00000000  00000+0  00000-0 0  9992
2 25513  45.0000 120.0000 0000000   0.0000  30.0000 13.89609337    13
CTC1_L_00170012-01
1 25514U 25145YD  26037.47803241  .00000000  00000+0  00000-0 0  9990
2 25514  45.0000 132.0000 0000000   0.0000 132.0000 13.89609337    10
CTC1_L_00170012-02
1 25515U 23063KD  26037.47803241  .00000000  00000+0  00000-0 0  9998
2 25515  45.0000 132.0000 0000000   0.0000 222.0000 13.89609337    11
CTC1_L_00170012-03
1 25516U 22521JV  26037.47803241  .00000000  00000+0  00000-0 0  9997
2 25516  45.0000 132.0000 0000000   0.0000 312.0000 13.89609337    12
CTC1_L_00170012-04
1 25517U 23180RV  26037.47803241  .00000000  00000+0  00000-0 0  9990
2 25517  45.0000 132.0000 0000000   0.0000  42.0000 13.89609337    13
CTC1_L_00170013-01
1 25518U 26556HM  26037.47803241  .00000000  00000+0  00000-0 0  9991
2 25518  45.0000 144.0000 0000000   0.0000 144.0000 13.89609337    10
CTC1_L_00170013-02
1 25519U 24526X   26037.47803241  .00000000  00000+0  00000-0 0  9997
2 25519  45.0000 144.0000 0000000   0.0000 234.0000 13.89609337    11
CTC1_L_00170013-03
1 25520U 25957RN  26037.47803241  .00000000  00000+0  00000-0 0  9998
2 25520  45.0000 144.0000 0000000   0.0000 324.0000 13.89609337    13
CTC1_L_00170013-04
1 25521U 25818YI  26037.47803241  .00000000  00000+0  00000-0 0  9995
2 25521  45.0000 144.0000 0000000   0.0000  54.0000 13.89609337    14
CTC1_L_00170014-01
1 25522U 24938CU  26037.47803241  .00000000  00000+0  00000-0 0  9998
2 25522  45.0000 156.0000 0000000   0.0000 156.0000 13.89609337    11
CTC1_L_00170014-02
1 25523U 26857B   26037.47803241  .00000000  00000+0  00000-0 0  9991
2 25523  45.0000 156.0000 0000000   0.0000 246.0000 13.89609337    12
CTC1_L_00170014-03
1 25524U 23828YC  26037.47803241  .00000000  00000+0  00000-0 0  9997
2 25524  45.0000 156.0000 0000000   0.0000 336.0000 13.89609337    13
CTC1_L_00170014-04
1 25525U 26007OP  26037.47803241  .00000000  00000+0  00000-0 0  9990
2 25525  45.0000 156.0000 0000000   0.0000  66.0000 13.89609337    14
CTC1_L_00170015-01
1 25526U 22712WY  26037.47803241  .00000000  00000+0  00000-0 0  9990
2 25526  45.0000 168.0000 0000000   0.0000 168.0000 13.89609337    11
CTC1_L_00170015-02
1 25527U 26679RO  26037.47803241  .00000000  00000+0  00000-0 0  9997
2 25527  45.0000 168.0000 0000000   0.0000 258.0000 13.89609337    12
CTC1_L_00170015-03
1 25528U 25906UP  26037.47803241  .00000000  00000+0  00000-0 0  9990
2 25528  45.0000 168.0000 0000000   0.0000 348.0000 13.89609337    13
CTC1_L_00170015-04
1 25529U 26290FU  26037.47803241  .00000000  00000+0  00000-0 0  9998
2 25529  45.0000 168.0000 0000000   0.0000  78.0000 13.89609337    14
CTC1_L_00170016-01
1 25530U 22354EE  26037.47803241  .00000000  00000+0  00000-0 0  9997
2 25530  45.0000 180.0000 0000000   0.0000 180.0000 13.89609337    14
CTC1_L_00170016-02
1 25531U 22614LG  26037.47803241  .00000000  00000+0  00000-0 0  9997
2 25531  45.0000 180.0000 0000000   0.0000 270.0000 13.89609337    15
